IRIDIUM 33 DEB          
1 34150U 97051ED  17345.91440556  .00004999  00000-0  11028-2 0  9994
2 34150  86.4796 251.5680 0088033  37.3470  90.7080 14.54768231461509
